OBJECT_NAME,OBJECT_ID,EPOCH,MEAN_MOTION,ECCENTRICITY,INCLINATION,RA_OF_ASC_NODE,ARG_OF_PERICENTER,MEAN_ANOMALY,EPHEMERIS_TYPE,CLASSIFICATION_TYPE,NORAD_CAT_ID,ELEMENT_SET_NO,REV_AT_EPOCH,BSTAR,MEAN_MOTION_DOT,MEAN_MOTION_DDOT
SCS-01 B,2025-100B,2026-06-21T03:44:31.137216,15.38932767,.0007775,97.3627,249.2363,273.9337,86.1020,0,U,63983,999,6152,.59888E-3,.23055E-3,0
SCS-01 C,2025-100C,2026-06-20T10:06:17.741952,15.20391097,.0029473,97.3660,244.1083,353.0106,7.0714,0,U,63984,999,6111,.31439E-3,.686E-4,0
SCS-01 D,2025-100D,2026-06-21T04:50:55.010112,15.32105849,.0007423,97.3659,248.0624,258.0481,101.9929,0,U,63985,999,6144,.68315E-3,.2115E-3,0
SCS-01 E,2025-100E,2026-06-20T10:06:28.911744,15.20329533,.000939,97.3623,244.0834,312.6705,47.3738,0,U,63986,999,3094,.49219E-3,.10654E-3,0
SCS-01 F,2025-100F,2026-06-20T10:02:52.298304,15.20311174,.0006868,97.3630,244.1147,308.2749,51.7868,0,U,63987,999,6112,.53335E-3,.1154E-3,0
SCS-01 G,2025-100G,2026-06-21T04:26:48.247296,15.26698798,.0011075,97.3694,247.1376,293.1462,66.8610,0,U,63988,999,6137,.13966E-3,.3599E-4,0
SCS-01 H,2025-100H,2026-06-21T03:57:24.386112,15.35813295,.0006565,97.3678,248.6703,257.4791,102.5718,0,U,63989,999,6147,.71628E-3,.24944E-3,0
SCS-01 J,2025-100J,2026-06-20T11:26:07.579104,15.31777074,.0006933,97.3618,247.1621,271.5657,88.4790,0,U,63990,999,6131,.64851E-3,.19864E-3,0
SCS-01 K,2025-100K,2026-06-21T03:21:41.698080,15.20320359,.0008441,97.3629,244.8255,311.8835,48.1679,0,U,63991,999,6122,.50618E-3,.10954E-3,0
SCS-01 L,2025-100L,2026-06-21T03:23:25.391040,15.20330432,.0007573,97.3660,244.9798,293.3372,66.7067,0,U,63992,999,6121,.51396E-3,.11125E-3,0
SCS-01 M,2025-100M,2026-06-21T04:05:56.381280,15.35550972,.0006929,97.3652,248.5386,283.7872,76.2601,0,U,63993,999,6146,.76776E-3,.26527E-3,0
STARLINK-33871,2025-101A,2026-06-20T07:04:31.483776,15.27583073,.0001232,43.0013,138.8277,274.5036,85.5675,0,U,63994,999,6267,.20934E-3,.5503E-4,0
STARLINK-34154,2025-101B,2026-06-20T06:23:49.219296,15.27591316,.0001047,42.9970,138.6158,264.8595,95.2137,0,U,63995,999,6274,.38794E-3,.10432E-3,0
STARLINK-34158,2025-101C,2026-06-20T04:38:34.736640,15.27560583,.00013326,43.0009,138.9637,273.1341,86.9358,0,U,63996,999,6273,-.19017283E-3,-.5488E-4,0
STARLINK-34165,2025-101D,2026-06-20T07:30:13.301280,15.27586778,.0001456,43.0011,138.0966,271.7000,88.3685,0,U,63997,999,6275,.23193E-3,.6127E-4,0
STARLINK-34150,2025-101E,2026-06-20T06:53:25.452960,15.27591345,.0000762,43.0007,138.7716,313.9160,46.1629,0,U,63998,999,6274,.40823E-3,.10992E-3,0
STARLINK-34169,2025-101F,2026-06-20T04:36:44.426304,15.27589556,.00015716,43.0000,138.9119,285.7633,74.3045,0,U,63999,999,6273,.12192401E-2,.33451E-3,0
STARLINK-34152,2025-101G,2026-06-20T07:54:16.473312,15.27585648,.0001232,43.0003,138.2203,264.1778,95.8934,0,U,64000,999,6275,.21854E-3,.5757E-4,0
STARLINK-33927,2025-101H,2026-06-20T07:17:28.737312,15.27593388,.0001445,43.0021,138.8955,273.6397,86.4289,0,U,64001,999,6274,.5067E-3,.13713E-3,0
STARLINK-33898,2025-101J,2026-06-20T07:06:20.941344,15.27621377,.0001408,43.0026,138.8393,268.9895,91.0795,0,U,64002,999,6274,.57135E-3,.15513E-3,0
STARLINK-33928,2025-101K,2026-06-20T05:48:39.669120,15.27591011,.0001657,43.0014,138.4268,270.6119,89.4543,0,U,64003,999,6274,.64063E-3,.17414E-3,0
STARLINK-33758,2025-101L,2026-06-20T08:14:37.587840,15.27592525,.0001087,42.9998,138.3262,266.3761,93.6966,0,U,64004,999,6275,.40793E-3,.10984E-3,0
STARLINK-33936,2025-101M,2026-06-20T04:42:15.563808,15.27597690,.00008498,43.0012,138.9395,266.3991,93.6764,0,U,64005,999,6273,.55929737E-3,.15168E-3,0
STARLINK-33931,2025-101N,2026-06-20T05:50:30.316416,15.27596756,.0001754,43.0012,138.4327,271.8007,88.2643,0,U,64006,999,6276,.45862E-3,.12386E-3,0
STARLINK-33759,2025-101P,2026-06-20T06:05:20.494752,15.27581498,.0001452,43.0007,138.5096,279.1518,80.9169,0,U,64007,999,6274,.71358E-3,.19427E-3,0
STARLINK-34163,2025-101Q,2026-06-20T06:47:51.720000,15.27566434,.0001517,43.0011,138.7381,267.1951,92.8727,0,U,64008,999,6274,.85486E-3,.23327E-3,0
STARLINK-34077,2025-101R,2026-06-20T06:03:27.855072,15.27589318,.0001404,42.9990,138.5008,266.9063,93.1627,0,U,64009,999,6274,.52941E-3,.14339E-3,0
STARLINK-34113,2025-101S,2026-06-20T06:58:58.480032,15.27598654,.000119,43.0021,138.7929,255.3457,104.7263,0,U,64010,999,6274,.52112E-3,.14113E-3,0
STARLINK-34193,2025-101T,2026-06-20T06:57:07.263360,15.27589288,.0001216,43.0028,138.7836,259.2703,100.8012,0,U,64011,999,6274,.43037E-3,.11603E-3,0
STARLINK-34078,2025-101U,2026-06-20T07:33:54.868032,15.27605773,.0001588,43.0014,138.1102,266.7380,93.3290,0,U,64012,999,6275,.78453E-3,.21406E-3,0
STARLINK-34182,2025-101V,2026-06-20T07:01:31.000224,15.27587481,.0001606,43.0022,135.3439,270.1584,89.9084,0,U,64013,999,6278,.22342E-3,.5892E-4,0
STARLINK-34192,2025-101W,2026-06-20T05:35:54.896928,15.27587633,.0001649,43.0029,139.2201,270.1664,89.8999,0,U,64014,999,6273,.30851E-3,.8239E-4,0
STARLINK-34093,2025-101X,2026-06-20T04:34:53.423040,15.27581009,.00013939,43.0004,138.8944,270.9291,89.1401,0,U,64015,999,6273,.74047726E-3,.20171E-3,0
STARLINK-34016,2025-101Y,2026-06-20T09:09:55.640736,15.27591803,.0001485,43.0005,137.7459,254.2067,105.8620,0,U,64016,999,6276,.4869E-3,.13165E-3,0
STARLINK-34161,2025-101Z,2026-06-20T04:40:23.998080,15.27594065,.00015441,43.0005,138.9226,273.8110,86.2565,0,U,64017,999,6273,-.20177228E-3,-.5813E-4,0
STARLINK-34162,2025-101AA,2026-06-20T06:33:04.437792,15.27583075,.0000993,42.9988,138.6499,265.0216,95.0522,0,U,64018,999,6274,.45602E-3,.12309E-3,0
STARLINK-34155,2025-101AB,2026-06-20T06:44:10.108320,15.27590403,.000121,43.0010,138.7097,270.0555,90.0158,0,U,64019,999,6274,.35991E-3,.9658E-4,0
STARLINK-34141,2025-101AC,2026-06-20T08:12:46.804032,15.27593405,.0001072,42.9992,138.3079,274.2924,85.7805,0,U,64020,999,6275,.74812E-3,.2039E-3,0
STARLINK-34062,2025-101AD,2026-06-20T04:32:59.081280,15.27634581,.00015876,42.9981,138.8798,265.4556,94.6114,0,U,64021,999,6273,.97701394E-3,.26766E-3,0
STARLINK-34051,2025-102A,2026-06-20T10:38:04.973568,14.98332589,.0003944,70.0000,215.3771,267.6286,92.4421,0,U,64022,999,6134,.12498E-3,.1399E-4,0
STARLINK-34087,2025-102B,2026-06-20T09:25:44.882112,14.98337789,.0004017,69.9992,215.6018,268.0859,91.9840,0,U,64023,999,6134,-.6212E-4,-.834E-5,0
STARLINK-34184,2025-102C,2026-06-20T10:13:49.166400,14.98347928,.0003157,70.0008,215.3108,271.4470,88.6327,0,U,64024,999,6123,.49304E-3,.5797E-4,0
STARLINK-34088,2025-102D,2026-06-20T09:38:02.168736,14.98340345,.0003951,69.9995,215.6267,266.6000,93.4707,0,U,64025,999,6134,.277E-3,.3215E-4,0
STARLINK-33992,2025-102E,2026-06-20T09:49:47.839008,14.98336409,.0003702,69.9997,215.6601,268.0284,92.0451,0,U,64026,999,6142,.24258E-3,.2803E-4,0
STARLINK-33967,2025-102F,2026-06-20T10:37:51.318048,14.98337693,.0003522,70.0006,215.3727,263.1128,96.9630,0,U,64027,999,6128,.26998E-3,.313E-4,0
STARLINK-33953,2025-102G,2026-06-20T09:55:46.042176,14.98335396,.0003963,70.0000,215.2679,268.0034,92.0671,0,U,64028,999,6144,.18073E-3,.2064E-4,0
STARLINK-33790,2025-102H,2026-06-20T09:19:58.672128,14.98324158,.0004019,69.9994,215.5817,268.8210,91.2488,0,U,64029,999,6138,-.38182E-5,-.139E-5,0
STARLINK-34030,2025-102J,2026-06-20T09:37:46.883712,14.98344413,.0004109,69.9997,215.6311,263.2020,96.8671,0,U,64030,999,6134,.28419E-3,.3301E-4,0
STARLINK-34024,2025-102K,2026-06-20T10:49:52.989600,14.98334006,.000378,69.9995,215.4035,265.1916,94.8812,0,U,64031,999,6128,.25893E-3,.2998E-4,0
STARLINK-34019,2025-102L,2026-06-20T08:31:39.222912,14.98335796,.0003925,70.0001,215.4656,267.8880,92.1830,0,U,64032,999,6134,.19611E-3,.2248E-4,0
STARLINK-33860,2025-102M,2026-06-20T10:25:49.320768,14.98332608,.0003331,70.0003,215.3422,270.9269,89.1509,0,U,64033,999,6135,.11122E-3,.1234E-4,0
STARLINK-33946,2025-102N,2026-06-20T10:32:05.057088,14.98321639,.0003039,70.0003,215.3606,269.1879,90.8931,0,U,64034,999,6139,.2637E-3,.3054E-4,0
STARLINK-34046,2025-102P,2026-06-20T09:44:01.494240,14.98344112,.0003961,69.9998,215.5250,271.2878,88.7827,0,U,64035,999,6111,.26539E-3,.3076E-4,0
STARLINK-34085,2025-102Q,2026-06-20T09:25:59.654784,14.98331581,.0003612,69.9996,215.5960,266.8835,93.1911,0,U,64036,999,6133,.18306E-3,.2092E-4,0
STARLINK-34008,2025-102R,2026-06-20T10:44:05.543232,14.98331629,.0004101,69.9997,215.3818,271.1959,88.8730,0,U,64037,999,6135,.25529E-3,.2955E-4,0
STARLINK-34079,2025-102S,2026-06-20T10:01:46.699104,14.98335507,.0004062,70.0002,215.2812,268.0804,91.9889,0,U,64038,999,6144,.18189E-3,.2078E-4,0
STARLINK-34089,2025-102T,2026-06-20T09:50:01.999104,14.98336395,.000396,69.9997,215.6541,268.3510,91.7195,0,U,64039,999,6133,.23129E-3,.2668E-4,0
STARLINK-34117,2025-102U,2026-06-20T09:32:00.220128,14.98335506,.0003846,69.9994,215.6100,268.5838,91.4880,0,U,64040,999,6127,.26435E-3,.3063E-4,0
STARLINK-34111,2025-102V,2026-06-20T10:50:07.800288,14.98339421,.0003568,69.9994,215.3973,268.1889,91.8861,0,U,64041,999,6112,.25937E-3,.3004E-4,0
STARLINK-34049,2025-102W,2026-06-20T09:43:47.118144,14.98335784,.0004091,69.9999,215.6433,266.8475,93.2216,0,U,64042,999,6133,.2237E-3,.2578E-4,0
STARLINK-34096,2025-102X,2026-06-20T09:19:44.592384,14.98334101,.0003814,69.9996,215.5850,267.7325,92.3397,0,U,64043,999,6122,.2285E-3,.2635E-4,0
STARLINK-34081,2025-102Y,2026-06-20T09:31:45.922656,14.98337244,.0003667,69.9997,215.6149,267.5868,92.4872,0,U,64044,999,6127,.29406E-3,.3418E-4,0
STARLINK-34033,2025-102Z,2026-06-20T10:31:50.549664,14.98318424,.0002902,70.0003,215.3546,270.9149,89.1678,0,U,64045,999,6127,-.58699E-3,-.7088E-4,0
STARLINK-33952,2025-102AA,2026-06-20T10:19:48.802080,14.98335643,.0003315,70.0003,215.3255,269.6728,90.4051,0,U,64046,999,6134,.26173E-3,.3032E-4,0
STARLINK-33961,2025-102AB,2026-06-20T10:43:51.320928,14.98332255,.0003805,70.0001,215.3861,268.9276,91.1447,0,U,64047,999,6122,.71578E-4,.761E-5,0
TIANYI A,2025-103A,2026-06-21T04:37:29.242848,15.19169369,.0001686,97.4122,244.6754,87.4685,272.6743,0,U,64048,999,6068,.54295E-4,.1074E-4,0
